NORAD_CAT_ID,OBJECT_NAME,OBJECT_TYPE,EPOCH,MEAN_MOTION,ECCENTRICITY,INCLINATION,RA_OF_ASC_NODE,ARG_OF_PERICENTER,MEAN_ANOMALY,BSTAR,MEAN_MOTION_DOT,MEAN_MOTION_DDOT,TLE_LINE0,TLE_LINE1,TLE_LINE2,SEMIMAJOR_AXIS,PERIOD,APOGEE,PERIGEE,DECAYED
55744.0,STARLINK-5601,PAYLOAD,2024-07-16 11:54:33,14.98322686,0.0002955,70.0026,320.4225,273.9438,86.1383,0.00047065,5.526e-05,0.0,0 STARLINK-5601,1 55744U 23028D   24198.49621722  .00005526  00000-0  47065-3 0  9990,2 55744  70.0026 320.4225 0002955 273.9438  86.1383 14.98322686 75984,6950.216,96.107,574.134,570.027,0.0
55744.0,STARLINK-5601,PAYLOAD,2024-07-16 16:42:57,14.98327137,0.0002902,70.0026,319.9175,274.2863,85.7964,0.00047795,5.614e-05,0.0,0 STARLINK-5601,1 55744U 23028D   24198.69649459  .00005614  00000-0  47795-3 0  9997,2 55744  70.0026 319.9175 0002902 274.2863  85.7964 14.98327137 76010,6950.202,96.107,574.084,570.05,0.0
55744.0,STARLINK-5601,PAYLOAD,2024-07-17 11:56:34,14.9833376,0.0003134,70.0014,317.898,275.8158,84.2644,-0.00010689,-1.368e-05,0.0,0 STARLINK-5601,1 55744U 23028D   24199.49762107 -.00001368  00000-0 -10689-3 0  9998,2 55744  70.0014 317.8980 0003134 275.8158  84.2644 14.98333760 76131,6950.181,96.107,574.224,569.868,0.0
55744.0,STARLINK-5601,PAYLOAD,2024-07-17 18:21:06,14.98338843,0.0002903,70.0016,317.2269,265.4036,94.6792,-8.0658e-05,-1.055e-05,0.0,0 STARLINK-5601,1 55744U 23028D   24199.76465581 -.00001055  00000-0 -80658-4 0  9991,2 55744  70.0016 317.2269 0002903 265.4036  94.6792 14.98338843 76170,6950.166,96.106,574.048,570.013,0.0
55744.0,STARLINK-5601,PAYLOAD,2024-07-18 13:34:42,14.98334359,0.0002834,70.0022,315.2067,267.2216,92.8619,3.728e-05,3.52e-06,0.0,0 STARLINK-5601,1 55744U 23028D   24200.56577535  .00000352  00000-0  37280-4 0  9995,2 55744  70.0022 315.2067 0002834 267.2216  92.8619 14.98334359 76293,6950.179,96.107,574.014,570.075,0.0
55744.0,STARLINK-5601,PAYLOAD,2024-07-18 16:46:58,14.98339351,0.0002736,70.002,314.8707,264.1752,95.9095,2.8687e-05,2.49e-06,0.0,0 STARLINK-5601,1 55744U 23028D   24200.69929188  .00000249  00000-0  28687-4 0  9990,2 55744  70.0020 314.8707 0002736 264.1752  95.9095 14.98339351 76311,6950.164,96.106,573.931,570.127,0.0
55744.0,STARLINK-5601,PAYLOAD,2024-07-19 12:00:35,14.9832358,0.0003021,70.0028,312.8502,266.3822,93.6992,-0.0001067,-1.366e-05,0.0,0 STARLINK-5601,1 55744U 23028D   24201.50040886 -.00001366  00000-0 -10670-3 0  9995,2 55744  70.0028 312.8502 0003021 266.3822  93.6992 14.98323580 76431,6950.213,96.107,574.177,569.978,0.0
55744.0,STARLINK-5601,PAYLOAD,2024-07-19 13:36:43,14.98319191,0.0002897,70.0028,312.6814,267.9629,92.1199,-0.00018221,-2.266e-05,0.0,0 STARLINK-5601,1 55744U 23028D   24201.56717192 -.00002266  00000-0 -18221-3 0  9992,2 55744  70.0028 312.6814 0002897 267.9629  92.1199 14.98319191 76444,6950.226,96.108,574.105,570.078,0.0
55744.0,STARLINK-5601,PAYLOAD,2024-07-19 16:48:59,14.98322122,0.0002831,70.0028,312.3445,269.1641,90.9193,-0.00012801,-1.62e-05,0.0,0 STARLINK-5601,1 55744U 23028D   24201.70069079 -.00001620  00000-0 -12801-3 0  9993,2 55744  70.0028 312.3445 0002831 269.1641  90.9193 14.98322122 76467,6950.217,96.108,574.05,570.115,0.0
55744.0,STARLINK-5601,PAYLOAD,2024-07-20 13:38:43,14.98338625,0.0003047,70.0025,310.1546,268.8404,91.2406,0.00015865,1.801e-05,0.0,0 STARLINK-5601,1 55744U 23028D   24202.56856283  .00001801  00000-0  15865-3 0  9991,2 55744  70.0025 310.1546 0003047 268.8404  91.2406 14.98338625 76595,6950.166,96.106,574.149,569.914,0.0
55744.0,STARLINK-5601,PAYLOAD,2024-07-20 16:50:59,14.98340489,0.000306,70.0029,309.8182,269.2354,90.8454,0.0004315,5.061e-05,0.0,0 STARLINK-5601,1 55744U 23028D   24202.70208299  .00005061  00000-0  43150-3 0  9995,2 55744  70.0029 309.8182 0003060 269.2354  90.8454 14.98340489 76616,6950.16,96.106,574.152,569.899,0.0
55744.0,STARLINK-5601,PAYLOAD,2024-07-21 00:51:40,14.98334363,0.0003195,70.0029,308.9765,275.0168,85.0627,0.00054209,6.382e-05,0.0,0 STARLINK-5601,1 55744U 23028D   24203.03588766  .00006382  00000-0  54209-3 0  9996,2 55744  70.0029 308.9765 0003195 275.0168  85.0627 14.98334363 76667,6950.179,96.107,574.265,569.824,0.0
55744.0,STARLINK-5601,PAYLOAD,2024-07-21 12:04:37,14.98324529,0.0002681,70.0032,307.798,273.944,86.1413,0.00027889,3.236e-05,0.0,0 STARLINK-5601,1 55744U 23028D   24203.50321396  .00003236  00000-0  27889-3 0  9991,2 55744  70.0032 307.7980 0002681 273.9440  86.1413 14.98324529 76732,6950.21,96.107,573.938,570.211,0.0
55744.0,STARLINK-5601,PAYLOAD,2024-07-21 13:40:45,14.98320738,0.0002765,70.0035,307.63,272.8496,87.2346,0.00026956,3.124e-05,0.0,0 STARLINK-5601,1 55744U 23028D   24203.56997610  .00003124  00000-0  26956-3 0  9995,2 55744  70.0035 307.6300 0002765 272.8496  87.2346 14.98320738 76748,6950.222,96.108,574.008,570.165,0.0
55744.0,STARLINK-5601,PAYLOAD,2024-07-21 16:53:01,14.98326807,0.0003327,70.0028,307.2956,274.1218,85.9561,0.00028543,3.314e-05,0.0,0 STARLINK-5601,1 55744U 23028D   24203.70349323  .00003314  00000-0  28543-3 0  9998,2 55744  70.0028 307.2956 0003327 274.1218  85.9561 14.98326807 76764,6950.203,96.107,574.38,569.755,0.0
55744.0,STARLINK-5601,PAYLOAD,2024-07-22 10:30:30,14.98333294,0.0003062,70.0034,305.4425,273.0345,87.0464,0.0002864,3.326e-05,0.0,0 STARLINK-5601,1 55744U 23028D   24204.43785295  .00003326  00000-0  28640-3 0  9992,2 55744  70.0034 305.4425 0003062 273.0345  87.0464 14.98333294 76872,6950.183,96.107,574.176,569.92,0.0
55744.0,STARLINK-5601,PAYLOAD,2024-07-23 10:32:31,14.98337304,0.0003069,70.003,302.9177,277.4197,82.6614,0.00035805,4.183e-05,0.0,0 STARLINK-5601,1 55744U 23028D   24205.43925175  .00004183  00000-0  35805-3 0  9999,2 55744  70.0030 302.9177 0003069 277.4197  82.6614 14.98337304 77026,6950.17,96.107,574.168,569.902,0.0
55744.0,STARLINK-5601,PAYLOAD,2024-07-24 10:34:32,14.98331686,0.0003548,70.0009,300.3918,275.3593,84.7161,2.3472e-05,1.87e-06,0.0,0 STARLINK-5601,1 55744U 23028D   24206.44065270  .00000187  00000-0  23472-4 0  9990,2 55744  70.0009 300.3918 0003548 275.3593  84.7161 14.98331686 77179,6950.188,96.107,574.519,569.587,0.0
55744.0,STARLINK-5601,PAYLOAD,2024-07-24 16:59:04,14.98333193,0.0003059,70.0013,299.7187,263.3968,96.6842,5.3529e-05,5.46e-06,0.0,0 STARLINK-5601,1 55744U 23028D   24206.70769095  .00000546  00000-0  53529-4 0  9990,2 55744  70.0013 299.7187 0003059 263.3968  96.6842 14.98333193 77211,6950.183,96.107,574.174,569.922,0.0
55744.0,STARLINK-5601,PAYLOAD,2024-07-25 05:48:09,14.98332324,0.0003117,69.9999,298.372,264.1719,95.9085,0.00015146,1.715e-05,0.0,0 STARLINK-5601,1 55744U 23028D   24207.24177134  .00001715  00000-0  15146-3 0  9998,2 55744  69.9999 298.3720 0003117 264.1719  95.9085 14.98332324 77291,6950.186,96.107,574.217,569.884,0.0
55744.0,STARLINK-5601,PAYLOAD,2024-07-25 10:36:33,14.98333176,0.0003099,70.0002,297.8674,264.041,96.0396,0.00015654,1.775e-05,0.0,0 STARLINK-5601,1 55744U 23028D   24207.44205065  .00001775  00000-0  15654-3 0  9995,2 55744  70.0002 297.8674 0003099 264.0410  96.0396 14.98333176 77324,6950.183,96.107,574.202,569.894,0.0
55744.0,STARLINK-5601,PAYLOAD,2024-07-26 10:38:34,14.98330662,0.0003089,70.0,295.3423,269.286,90.7945,0.00010931,1.212e-05,0.0,0 STARLINK-5601,1 55744U 23028D   24208.44345084  .00001212  00000-0  10931-3 0  9991,2 55744  70.0000 295.3423 0003089 269.2860  90.7945 14.98330662 77476,6950.191,96.107,574.203,569.909,0.0
55744.0,STARLINK-5601,PAYLOAD,2024-07-26 15:26:57,14.98335026,0.0003027,70.0004,294.838,270.1398,89.9414,0.00020536,2.358e-05,0.0,0 STARLINK-5601,1 55744U 23028D   24208.64372569  .00002358  00000-0  20536-3 0  9995,2 55744  70.0004 294.8380 0003027 270.1398  89.9414 14.98335026 77509,6950.177,96.107,574.146,569.939,0.0
55744.0,STARLINK-5601,PAYLOAD,2024-07-27 09:04:27,14.98329222,0.0003052,70.0003,292.9875,270.0025,90.0784,2.8621e-05,2.49e-06,0.0,0 STARLINK-5601,1 55744U 23028D   24209.37809123  .00000249  00000-0  28621-4 0  9998,2 55744  70.0003 292.9875 0003052 270.0025  90.0784 14.98329222 77616,6950.195,96.107,574.181,569.939,0.0
55744.0,STARLINK-5601,PAYLOAD,2024-07-27 15:28:59,14.98329369,0.0002958,69.9998,292.3126,267.7088,92.3732,-5.377e-06,-1.57e-06,0.0,0 STARLINK-5601,1 55744U 23028D   24209.64513179 -.00000157  00000-0 -53770-5 0  9995,2 55744  69.9998 292.3126 0002958 267.7088  92.3732 14.98329369 77659,6950.195,96.107,574.116,570.004,0.0
55744.0,STARLINK-5601,PAYLOAD,2024-07-28 12:18:43,14.98337887,0.0003035,70.0003,290.1258,269.9644,90.1167,6.9318e-05,7.34e-06,0.0,0 STARLINK-5601,1 55744U 23028D   24210.51300336  .00000734  00000-0  69318-4 0  9995,2 55744  70.0003 290.1258 0003035 269.9644  90.1167 14.98337887 77786,6950.169,96.106,574.143,569.924,0.0
55744.0,STARLINK-5601,PAYLOAD,2024-07-28 15:30:59,14.98338243,0.0003041,70.0003,289.7893,270.0988,89.9822,6.8488e-05,7.24e-06,0.0,0 STARLINK-5601,1 55744U 23028D   24210.64652247  .00000724  00000-0  68488-4 0  9996,2 55744  70.0003 289.7893 0003041 270.0988  89.9822 14.98338243 77800,6950.167,96.106,574.146,569.919,0.0
55744.0,STARLINK-5601,PAYLOAD,2024-07-29 09:08:28,14.98327858,0.0002948,70.0007,287.9385,266.6998,93.3823,9.4394e-05,1.033e-05,0.0,0 STARLINK-5601,1 55744U 23028D   24211.38088871  .00001033  00000-0  94394-4 0  9993,2 55744  70.0007 287.9385 0002948 266.6998  93.3823 14.98327858 77919,6950.2,96.107,574.113,570.016,0.0
55744.0,STARLINK-5601,PAYLOAD,2024-07-29 21:57:33,14.98330964,0.0002855,70.0008,286.5925,265.5337,94.5495,3.8815e-05,3.7e-06,0.0,0 STARLINK-5601,1 55744U 23028D   24211.91496893  .00000370  00000-0  38815-4 0  9998,2 55744  70.0008 286.5925 0002855 265.5337  94.5495 14.98330964 77995,6950.19,96.107,574.039,570.071,0.0
55744.0,STARLINK-5601,PAYLOAD,2024-07-30 10:46:37,14.98333533,0.0002979,70.0004,285.2447,269.9996,90.0821,1.9538e-05,1.4e-06,0.0,0 STARLINK-5601,1 55744U 23028D   24212.44904671  .00000140  00000-0  19538-4 0  9991,2 55744  70.0004 285.2447 0002979 269.9996  90.0821 14.98333533 78071,6950.182,96.107,574.117,569.977,0.0
